GLOBALSTAR M084         
1 38040U 11080A   25331.20761796 -.00000068  00000+0  19877-3 0  9996
2 38040  52.0016 272.1813 0000912  47.5160  91.4169 12.62265834643259
GLOBALSTAR M080         
1 38041U 11080B   25331.00718742 -.00000076  00000+0  15298-3 0  9990
2 38041  52.0070 274.4395 0000596 101.7114 335.8860 12.62271518643350
GLOBALSTAR M082         
1 38042U 11080C   25331.11623869 -.00000079  00000+0  13782-3 0  9997
2 38042  52.0072 229.5875 0000762  89.9670  53.1687 12.62265461644073
GLOBALSTAR M092         
1 38043U 11080D   25330.28914387 -.00000107  00000+0 -18947-4 0  9995
2 38043  52.0105 322.4906 0000365  64.3958  37.9318 12.62267715642426
GLOBALSTAR M090         
1 38044U 11080E   25331.14765514 -.00000083  00000+0  11505-3 0  9992
2 38044  52.0114 223.3832 0000753  69.3401  95.6046 12.62264666644190
GLOBALSTAR M086         
1 38045U 11080F   25331.17229574 -.00000076  00000+0  15565-3 0  9999
2 38045  51.9890 223.5667 0001064   4.9204 160.7403 12.62280369644144
GLOBALSTAR M097         
1 39072U 13005A   25330.76788604 -.00000095  00000+0  46519-4 0  9992
2 39072  52.0017 139.5174 0000822  96.9192 263.1769 12.62267735591343
GLOBALSTAR M093         
1 39073U 13005B   25330.74183520 -.00000100  00000+0  22389-4 0  9993
2 39073  52.0077 132.8671 0000651 109.4572 250.6365 12.62270748591295
